IRIDIUM 144             
1 43249U 18030A   24244.94142605  .00000051  00000+0  11059-4 0  9996
2 43249  86.4008 203.8153 0002047  89.2032 270.9399 14.34216272336361
IRIDIUM 149             
1 43250U 18030B   24244.94776636  .00000617  00000+0  21340-3 0  9996
2 43250  86.4005 203.7872 0002242  92.3420 267.8033 14.34221309336389
IRIDIUM 157             
1 43251U 18030C   24245.17609909  .00000395  00000+0  13393-3 0  9993
2 43251  86.4008 203.7303 0002759  87.4955 272.6557 14.34217483336397
IRIDIUM 140             
1 43252U 18030D   24245.12535763  .00000363  00000+0  12259-3 0  9990
2 43252  86.4007 203.7659 0001977  82.2308 277.9112 14.34221054336447
IRIDIUM 145             
1 43253U 18030E   24245.18244163  .00000391  00000+0  13243-3 0  9993
2 43253  86.4008 203.7155 0002048  92.5562 267.5868 14.34216837336385
IRIDIUM 146             
1 43254U 18030F   24245.16340844  .00000855  00000+0  29811-3 0  9998
2 43254  86.4006 203.7380 0002233  87.1214 273.0237 14.34215935336395
IRIDIUM 148             
1 43255U 18030G   24245.13170122  .00000819  00000+0  28539-3 0  9992
2 43255  86.4010 203.7842 0002414  91.8739 268.2734 14.34222040336437
IRIDIUM 142             
1 43256U 18030H   24244.89067386  .00000964  00000+0  33713-3 0  9993
2 43256  86.4004 203.7978 0002020  93.9083 266.2344 14.34226379336354
